NORAD_CAT_ID,OBJECT_NAME,OBJECT_TYPE,EPOCH,MEAN_MOTION,ECCENTRICITY,INCLINATION,RA_OF_ASC_NODE,ARG_OF_PERICENTER,MEAN_ANOMALY,BSTAR,MEAN_MOTION_DOT,MEAN_MOTION_DDOT,TLE_LINE0,TLE_LINE1,TLE_LINE2,SEMIMAJOR_AXIS,PERIOD,APOGEE,PERIGEE,DECAYED
52503.0,STARLINK-3861,PAYLOAD,2022-12-06 07:28:43,15.08845838,0.0002617,53.2192,338.4427,30.1663,329.9479,4.418899999999999e-05,4.15e-06,0.0,0 STARLINK-3861,1 52503U 22049BE  22340.31162005  .00000415  00000-0  44189-4 0  9991,2 52503  53.2192 338.4427 0002617  30.1663 329.9479 15.08845838 32979,6917.863,95.437,541.538,537.9169999999998,0.0
52503.0,STARLINK-3861,PAYLOAD,2022-12-06 17:01:03,15.08828685,0.0002678,53.2195,336.6591,29.7115,330.4029,1.8098e-05,-1e-08,0.0,0 STARLINK-3861,1 52503U 22049BE  22340.70907303 -.00000001  00000-0  18098-4 0  9994,2 52503  53.2195 336.6591 0002678  29.7115 330.4029 15.08828685 33034,6917.915,95.438,541.633,537.927,0.0
52503.0,STARLINK-3861,PAYLOAD,2022-12-06 23:22:36,15.08835231,0.0002625,53.2193,335.4689,26.5159,333.5967,3.3046e-05,2.37e-06,0.0,0 STARLINK-3861,1 52503U 22049BE  22340.97402873  .00000237  00000-0  33046-4 0  9995,2 52503  53.2193 335.4689 0002625  26.5159 333.5967 15.08835231 33234,6917.895,95.438,541.576,537.944,0.0
52503.0,STARLINK-3861,PAYLOAD,2022-12-07 16:51:50,15.08834383,0.0002658,53.2193,332.1986,29.6853,330.4290000000001,5.0117e-05,5.09e-06,0.0,0 STARLINK-3861,1 52503U 22049BE  22341.70267261  .00000509  00000-0  50117-4 0  9997,2 52503  53.2193 332.1986 0002658  29.6853 330.4290 15.08834383 33185,6917.898,95.438,541.601,537.924,0.0
52503.0,STARLINK-3861,PAYLOAD,2022-12-08 05:34:55,15.08848316,0.0002616,53.2184,329.8202,23.8316,336.2796,0.00021521,3.139e-05,0.0,0 STARLINK-3861,1 52503U 22049BE  22342.23258164  .00003139  00000-0  21521-3 0  9996,2 52503  53.2184 329.8202 0002616  23.8316 336.2796 15.08848316 33426,6917.855,95.437,541.53,537.91,0.0
52503.0,STARLINK-3861,PAYLOAD,2022-12-08 08:45:41,15.08851706,0.0002771,53.2183,329.2253,33.5742,326.5426,0.00025129,3.714e-05,0.0,0 STARLINK-3861,1 52503U 22049BE  22342.36506070  .00003714  00000-0  25129-3 0  9999,2 52503  53.2183 329.2253 0002771  33.5742 326.5426 15.08851706 33281,6917.845,95.437,541.627,537.793,0.0
52503.0,STARLINK-3861,PAYLOAD,2022-12-08 16:42:36,15.08849171,0.0002455,53.2184,327.7388,17.3499,342.7577,0.00022551,3.303e-05,0.0,0 STARLINK-3861,1 52503U 22049BE  22342.69625798  .00003303  00000-0  22551-3 0  9994,2 52503  53.2184 327.7388 0002455  17.3499 342.7577 15.08849171 33338,6917.852,95.437,541.4159999999998,538.019,0.0
52503.0,STARLINK-3861,PAYLOAD,2022-12-09 10:11:50,15.08854956,0.0002803,53.2179,324.4707,16.1434,343.9647,-0.00027221,-4.620000000000001e-05,0.0,0 STARLINK-3861,1 52503U 22049BE  22343.42489038 -.00004620  00000-0 -27221-3 0  9995,2 52503  53.2179 324.4707 0002803  16.1434 343.9647 15.08854956 33602,6917.835,95.437,541.639,537.761,0.0
52503.0,STARLINK-3861,PAYLOAD,2022-12-09 16:33:28,15.08718692,0.0002945,53.2177,323.2821,314.0455,46.0294,-0.0017795,-0.00028407,0.0,0 STARLINK-3861,1 52503U 22049BE  22343.68990849 -.00028407  00000-0 -17795-2 0  9993,2 52503  53.2177 323.2821 0002945 314.0455  46.0294 15.08718692 33643,6918.251,95.445,542.154,538.0790000000002,0.0
52503.0,STARLINK-3861,PAYLOAD,2022-12-10 05:16:30,15.08823593,0.0002389,53.2182,320.9038,22.1197,337.9898,-0.00024293,-4.151e-05,0.0,0 STARLINK-3861,1 52503U 22049BE  22344.21979598 -.00004151  00000-0 -24293-3 0  9993,2 52503  53.2182 320.9038 0002389  22.1197 337.9898 15.08823593 33723,6917.931,95.439,541.448,538.143,0.0
52503.0,STARLINK-3861,PAYLOAD,2022-12-10 08:27:16,15.08825552,0.0002773,53.2185,320.3053,21.237,338.8737,-0.00018995,-3.309e-05,0.0,0 STARLINK-3861,1 52503U 22049BE  22344.35227678 -.00003309  00000-0 -18995-3 0  9999,2 52503  53.2185 320.3053 0002773  21.2370 338.8737 15.08825552 33580,6917.925,95.438,541.7080000000002,537.871,0.0
52503.0,STARLINK-3861,PAYLOAD,2022-12-11 05:07:17,15.08838969,0.0002693,53.2184,316.4388,29.9225,330.1921,0.00041452,6.315e-05,0.0,0 STARLINK-3861,1 52503U 22049BE  22345.21340170  .00006315  00000-0  41452-3 0  9990,2 52503  53.2184 316.4388 0002693  29.9225 330.1921 15.08838969 33879,6917.884,95.438,541.612,537.886,0.0
52503.0,STARLINK-3861,PAYLOAD,2022-12-11 09:53:27,15.08851058,0.0002563,53.2183,315.5464,30.1872,329.9268,0.0010288,0.00016128,0.0,0 STARLINK-3861,1 52503U 22049BE  22345.41212315  .00016128  00000-0  10288-2 0  9996,2 52503  53.2183 315.5464 0002563  30.1872 329.9268 15.08851058 33741,6917.847,95.437,541.485,537.939,0.0
52503.0,STARLINK-3861,PAYLOAD,2022-12-12 06:33:27,15.08859009,0.0002473,53.2183,311.6803,24.9302,335.1809,0.00032839,4.945e-05,0.0,0 STARLINK-3861,1 52503U 22049BE  22346.27323377  .00004945  00000-0  32839-3 0  9993,2 52503  53.2183 311.6803 0002473  24.9302 335.1809 15.08859009 34031,6917.821999999999,95.436,541.398,537.977,0.0
52503.0,STARLINK-3861,PAYLOAD,2022-12-13 04:48:51,15.08841589,0.0002572,53.2189,307.5163,24.7023,335.4092,-7.6262e-05,-1.502e-05,0.0,0 STARLINK-3861,1 52503U 22049BE  22347.20059512 -.00001502  00000-0 -76262-4 0  9991,2 52503  53.2189 307.5163 0002572  24.7023 335.4092 15.08841589 34174,6917.876,95.437,541.52,537.961,0.0
52503.0,STARLINK-3861,PAYLOAD,2022-12-13 07:59:37,15.08840044,0.0002537,53.2187,306.9227,25.9467,334.1652,-7.9431e-05,-1.552e-05,0.0,0 STARLINK-3861,1 52503U 22049BE  22347.33307553 -.00001552  00000-0 -79431-4 0  9992,2 52503  53.2187 306.9227 0002537  25.9467 334.1652 15.08840044 34030,6917.88,95.438,541.5,537.99,0.0
52503.0,STARLINK-3861,PAYLOAD,2022-12-13 14:21:10,15.08846071,0.0002636,53.2193,305.7339,28.0521,332.0613,8.0297e-05,9.9e-06,0.0,0 STARLINK-3861,1 52503U 22049BE  22347.59803264  .00000990  00000-0  80297-4 0  9995,2 52503  53.2193 305.7339 0002636  28.0521 332.0613 15.08846071 34077,6917.861999999999,95.437,541.55,537.903,0.0
52503.0,STARLINK-3861,PAYLOAD,2022-12-14 06:15:01,15.08843911,0.0002658,53.2177,302.7615,27.0907,333.0223,0.0001893,2.726e-05,0.0,0 STARLINK-3861,1 52503U 22049BE  22348.26043608  .00002726  00000-0  18930-3 0  9991,2 52503  53.2177 302.7615 0002658  27.0907 333.0223 15.08843911 34331,6917.868,95.437,541.572,537.895,0.0
52503.0,STARLINK-3861,PAYLOAD,2022-12-14 14:11:57,15.08837874,0.0002627,53.2172,301.2749,28.6465,331.4671,9.6879e-05,1.254e-05,0.0,0 STARLINK-3861,1 52503U 22049BE  22348.59163865  .00001254  00000-0  96879-4 0  9999,2 52503  53.2172 301.2749 0002627  28.6465 331.4671 15.08837874 34228,6917.887,95.438,541.569,537.935,0.0
52503.0,STARLINK-3861,PAYLOAD,2022-12-15 14:02:44,15.08850345,0.0002679,53.2172,296.8144,29.9146,330.1999,0.00030888,4.632e-05,0.0,0 STARLINK-3861,1 52503U 22049BE  22349.58523555  .00004632  00000-0  30888-3 0  9995,2 52503  53.2172 296.8144 0002679  29.9146 330.1999 15.08850345 34376,6917.849,95.437,541.567,537.86,0.0
52503.0,STARLINK-3861,PAYLOAD,2022-12-15 20:24:16,15.08851802,0.0002713,53.217,295.6249,31.0561,329.0591,0.0003448,5.205e-05,0.0,0 STARLINK-3861,1 52503U 22049BE  22349.85019436  .00005205  00000-0  34480-3 0  9992,2 52503  53.2170 295.6249 0002713  31.0561 329.0591 15.08851802 34410,6917.844,95.437,541.586,537.8330000000002,0.0
52503.0,STARLINK-3861,PAYLOAD,2022-12-16 01:10:26,15.08850338,0.0002626,53.217,294.7319,31.5257,328.5892,0.0002931,4.381e-05,0.0,0 STARLINK-3861,1 52503U 22049BE  22350.04891398  .00004381  00000-0  29310-3 0  9990,2 52503  53.2170 294.7319 0002626  31.5257 328.5892 15.08850338 34600,6917.849,95.437,541.53,537.8969999999998,0.0
52503.0,STARLINK-3861,PAYLOAD,2022-12-16 07:31:58,15.08857161,0.0002688,53.2171,293.5422,31.3904,328.7248,0.00043285,6.611e-05,0.0,0 STARLINK-3861,1 52503U 22049BE  22350.31387016  .00006611  00000-0  43285-3 0  9992,2 52503  53.2171 293.5422 0002688  31.3904 328.7248 15.08857161 34482,6917.828,95.436,541.552,537.8330000000002,0.0
52503.0,STARLINK-3861,PAYLOAD,2022-12-16 20:15:04,15.08838499,0.0002771,53.2163,291.1647,29.3992,330.7155,1.4396e-05,-5.9e-07,0.0,0 STARLINK-3861,1 52503U 22049BE  22350.84379737 -.00000059  00000-0  14396-4 0  9994,2 52503  53.2163 291.1647 0002771  29.3992 330.7155 15.08838499 34723,6917.885,95.438,541.6669999999998,537.8330000000002,0.0
52503.0,STARLINK-3861,PAYLOAD,2022-12-17 05:47:22,15.08847808,0.0002656,53.2168,289.3797,31.0981,329.0167,0.00036698,5.558e-05,0.0,0 STARLINK-3861,1 52503U 22049BE  22351.24123493  .00005558  00000-0  36698-3 0  9991,2 52503  53.2168 289.3797 0002656  31.0981 329.0167 15.08847808 34620,6917.857,95.437,541.559,537.884,0.0
52503.0,STARLINK-3861,PAYLOAD,2022-12-18 05:38:09,15.08842044,0.0002754,53.2172,284.9191,30.4994,329.6158,0.00012925,1.769e-05,0.0,0 STARLINK-3861,1 52503U 22049BE  22352.23483516  .00001769  00000-0  12925-3 0  9993,2 52503  53.2172 284.9191 0002754  30.4994 329.6158 15.08842044 34937,6917.874,95.437,541.644,537.8340000000002,0.0
52503.0,STARLINK-3861,PAYLOAD,2022-12-19 05:28:57,15.08840644,0.0002713,53.2173,280.458,28.7342,331.3799,0.00010013,1.306e-05,0.0,0 STARLINK-3861,1 52503U 22049BE  22353.22843849  .00001306  00000-0  10013-3 0  9995,2 52503  53.2173 280.4580 0002713  28.7342 331.3799 15.08840644 35085,6917.878000000002,95.438,541.62,537.867,0.0
52503.0,STARLINK-3861,PAYLOAD,2022-12-19 19:47:26,15.08826484,0.0002597,53.2178,277.7808,32.7656,327.3497,6.5465e-05,7.53e-06,0.0,0 STARLINK-3861,1 52503U 22049BE  22353.82460809  .00000753  00000-0  65465-4 0  9999,2 52503  53.2178 277.7808 0002597  32.7656 327.3497 15.08826484 35014,6917.922,95.438,541.5830000000002,537.99,0.0
52503.0,STARLINK-3861,PAYLOAD,2022-12-19 22:58:12,15.08835498,0.00024,53.218,277.1862,35.2761,324.839,0.00018347,2.633e-05,0.0,0 STARLINK-3861,1 52503U 22049BE  22353.95708417  .00002633  00000-0  18347-3 0  9998,2 52503  53.2180 277.1862 0002400  35.2761 324.8390 15.08835498 35197,6917.894,95.438,541.419,538.099,0.0
